IRIDIUM 57              
1 25273U 98019B   24304.52893551  .00001964  00000+0  67619-3 0  9998
2 25273  86.3966 241.3945 0002324  84.4403 275.7058 14.35528894391838
IRIDIUM 63              
1 25286U 98021B   24304.56799088  .00001715  00000+0  58244-3 0  9997
2 25286  86.4040 178.3703 0001925  78.8338 281.3075 14.36136518390882
IRIDIUM 69              
1 25319U 98026A   24304.44460368  .00002698  00000+0  84308-3 0  9993
2 25319  86.4043 192.3814 0004474  71.3302 288.8382 14.40457427389984
IRIDIUM 71              
1 25320U 98026B   24304.41648312  .00001921  00000+0  59550-3 0  9998
2 25320  86.4038 187.1336 0003969 103.4741 256.6901 14.40714653390500
IRIDIUM 73              
1 25344U 98032C   24304.48720888  .00002562  00000+0  64242-3 0  9993
2 25344  86.4411 144.3421 0002702  77.8784 282.2724 14.51055581397242
IRIDIUM 82              
1 25467U 98051A   24304.49461567  .00046622  00000+0  19558-2 0  9991
2 25467  86.3779 221.2482 0116925  80.4215 281.0216 15.17178491388958
